{"type":"FeatureCollection","features":[{"type":"Feature","properties":{"NAME":"City of Arab corporate limits","SOURCE":"Derived from the Greenstone zoning layer"},"geometry":{"type":"MultiPolygon","coordinates":[[[[-86.566286,34.376177],[-86.565636,34.301411],[-86.565109,34.301361],[-86.565084,34.301296],[-86.565635,34.301309],[-86.565627,34.300365],[-86.565624,34.30032],[-86.56453,34.299688],[-86.564419,34.299629],[-86.564344,34.299592],[-86.564229,34.29954],[-86.564151,34.299507],[-86.564031,34.299461],[-86.563908,34.299419],[-86.563784,34.299382],[-86.563616,34.299339],[-86.563531,34.299321],[-86.563402,34.299297],[-86.563018,34.299238],[-86.562911,34.299223],[-86.562768,34.29921],[-86.56266,34.299205],[-86.56195,34.2992],[-86.561677,34.299195],[-86.559627,34.299129],[-86.559537,34.299127],[-86.559402,34.299128],[-86.559222,34.299135],[-86.559088,34.299146],[-86.558279,34.299232],[-86.557943,34.299262],[-86.557691,34.29928],[-86.556983,34.299326],[-86.557094,34.300704],[-86.557096,34.300722],[-86.557105,34.30075],[-86.557118,34.300776],[-86.557137,34.3008],[-86.557151,34.300814],[-86.557176,34.300833],[-86.557205,34.300849],[-86.557225,34.300857],[-86.557693,34.300976],[-86.557781,34.301003],[-86.557895,34.301047],[-86.558001,34.301096],[-86.558106,34.301154],[-86.558205,34.301218],[-86.558275,34.301271],[-86.558362,34.301346],[-86.558422,34.301406],[-86.559014,34.302059],[-86.559056,34.302109],[-86.559094,34.302161],[-86.559128,34.302215],[-86.559157,34.30227],[-86.559216,34.302396],[-86.559252,34.302465],[-86.559426,34.302766],[-86.559477,34.302843],[-86.559533,34.302917],[-86.559593,34.302989],[-86.55968,34.303081],[-86.559782,34.303176],[-86.559918,34.303289],[-86.560061,34.303397],[-86.56021,34.303499],[-86.560325,34.303571],[-86.560484,34.303662],[-86.560606,34.303726],[-86.560924,34.303885],[-86.560727,34.303882],[-86.560513,34.303775],[-86.560388,34.303708],[-86.560307,34.303662],[-86.560188,34.303589],[-86.560071,34.303512],[-86.559996,34.303459],[-86.559922,34.303405],[-86.559814,34.30332],[-86.559745,34.303262],[-86.559652,34.30318],[-86.55958,34.30311],[-86.559491,34.303013],[-86.55943,34.302937],[-86.559355,34.302831],[-86.559305,34.30275],[-86.559166,34.302508],[-86.559117,34.302413],[-86.559045,34.302262],[-86.559013,34.302209],[-86.558976,34.302158],[-86.558935,34.302108],[-86.558343,34.301457],[-86.558265,34.30138],[-86.558201,34.301327],[-86.558133,34.301276],[-86.558038,34.301215],[-86.557962,34.301173],[-86.557857,34.301123],[-86.557747,34.301081],[-86.557662,34.301054],[-86.557192,34.300935],[-86.557155,34.30092],[-86.557121,34.300902],[-86.55708,34.300872],[-86.557054,34.300846],[-86.557032,34.300817],[-86.557015,34.300786],[-86.557003,34.300754],[-86.556996,34.30072],[-86.556884,34.299335],[-86.555864,34.299347],[-86.555646,34.299345],[-86.555355,34.299334],[-86.555071,34.299316],[-86.555009,34.299309],[-86.554962,34.299302],[-86.554893,34.299287],[-86.554825,34.299269],[-86.55476,34.299247],[-86.554698,34.299222],[-86.553791,34.299723],[-86.552889,34.300213],[-86.549376,34.302099],[-86.549244,34.302289],[-86.549223,34.302324],[-86.549211,34.302351],[-86.549196,34.302394],[-86.549185,34.302451],[-86.549183,34.302495],[-86.549186,34.302539],[-86.549361,34.303323],[-86.549385,34.303408],[-86.549419,34.303491],[-86.549462,34.303572],[-86.549515,34.303648],[-86.549607,34.303763],[-86.549486,34.303762],[-86.549432,34.303693],[-86.549403,34.303655],[-86.549353,34.303574],[-86.549332,34.303533],[-86.549304,34.303469],[-86.549288,34.303426],[-86.549268,34.30336],[-86.549093,34.302583],[-86.549084,34.302521],[-86.549083,34.302474],[-86.549088,34.302427],[-86.549097,34.302381],[-86.549107,34.302351],[-86.549125,34.302307],[-86.549139,34.302278],[-86.549156,34.30225],[-86.549193,34.302197],[-86.548696,34.302464],[-86.548407,34.302626],[-86.548052,34.302831],[-86.547809,34.302977],[-86.547635,34.303084],[-86.547402,34.303233],[-86.547184,34.303383],[-86.547025,34.303499],[-86.546735,34.303717],[-86.548278,34.303734],[-86.549037,34.303757],[-86.54838,34.30375],[-86.542932,34.303674],[-86.544647,34.303693],[-86.544034,34.302121],[-86.5438,34.302136],[-86.543488,34.30215],[-86.543175,34.302156],[-86.542937,34.302155],[-86.542608,34.302148],[-86.542444,34.302141],[-86.54201,34.302118],[-86.541627,34.302103],[-86.539668,34.302061],[-86.535624,34.302023],[-86.535626,34.301886],[-86.537213,34.3019],[-86.537159,34.300947],[-86.537917,34.300424],[-86.538023,34.300354],[-86.538132,34.300287],[-86.538245,34.300224],[-86.538361,34.300166],[-86.538502,34.300101],[-86.538716,34.300014],[-86.538872,34.299947],[-86.539026,34.299877],[-86.539152,34.299817],[-86.539402,34.299692],[-86.539716,34.299523],[-86.539818,34.29947],[-86.540025,34.299369],[-86.541379,34.298759],[-86.541478,34.298717],[-86.54158,34.298679],[-86.541683,34.298645],[-86.541791,34.298615],[-86.541843,34.298603],[-86.541915,34.298595],[-86.541969,34.298594],[-86.542035,34.298599],[-86.542082,34.29861],[-86.542126,34.298628],[-86.542165,34.298653],[-86.542197,34.298684],[-86.542221,34.298719],[-86.542237,34.298756],[-86.542243,34.298786],[-86.542244,34.298805],[-86.542239,34.298845],[-86.54223,34.298874],[-86.541387,34.300907],[-86.541367,34.300958],[-86.541343,34.301031],[-86.54132,34.301124],[-86.541307,34.301201],[-86.541299,34.30128],[-86.541296,34.301358],[-86.541299,34.301446],[-86.541337,34.301959],[-86.541571,34.301964],[-86.541851,34.301973],[-86.542122,34.301985],[-86.54255,34.302008],[-86.54275,34.302015],[-86.542953,34.302018],[-86.543223,34.302018],[-86.543481,34.302013],[-86.543766,34.302001],[-86.544052,34.301982],[-86.544223,34.301964],[-86.544393,34.301938],[-86.547377,34.301424],[-86.54743,34.301555],[-86.544426,34.302073],[-86.544235,34.302101],[-86.544857,34.303695],[-86.546395,34.303713],[-86.546929,34.303312],[-86.547102,34.303189],[-86.547278,34.30307],[-86.547496,34.30293],[-86.54774,34.302781],[-86.547971,34.302644],[-86.548284,34.302463],[-86.548532,34.302324],[-86.548765,34.302197],[-86.552675,34.3001],[-86.553578,34.299609],[-86.554381,34.299167],[-86.554156,34.299137],[-86.553989,34.29911],[-86.553636,34.299043],[-86.553285,34.298971],[-86.553029,34.298914],[-86.552705,34.298836],[-86.552292,34.298731],[-86.552122,34.298683],[-86.551984,34.298639],[-86.551847,34.298592],[-86.551713,34.29854],[-86.551554,34.298473],[-86.551442,34.298422],[-86.551353,34.298379],[-86.550838,34.298118],[-86.550737,34.298072],[-86.550668,34.298044],[-86.550528,34.297992],[-86.550421,34.297959],[-86.550302,34.297927],[-86.550169,34.297899],[-86.550102,34.297887],[-86.550001,34.297874],[-86.549864,34.297863],[-86.547019,34.297711],[-86.546893,34.297701],[-86.546705,34.297682],[-86.546517,34.297659],[-86.54633,34.297632],[-86.546251,34.297808],[-86.546174,34.297962],[-86.54612,34.298051],[-86.546059,34.298136],[-86.546008,34.298198],[-86.54551,34.298763],[-86.545337,34.298951],[-86.54519,34.299105],[-86.545067,34.299222],[-86.544938,34.299335],[-86.544222,34.299902],[-86.544157,34.299957],[-86.544077,34.300035],[-86.544003,34.300118],[-86.543953,34.300182],[-86.543893,34.300272],[-86.543746,34.300272],[-86.543804,34.300177],[-86.54387,34.300085],[-86.543944,34.299998],[-86.544023,34.299917],[-86.544065,34.299878],[-86.544131,34.299823],[-86.544812,34.299283],[-86.544907,34.299203],[-86.544999,34.299121],[-86.545088,34.299035],[-86.545303,34.298807],[-86.545464,34.29863],[-86.545901,34.298133],[-86.545967,34.29805],[-86.546012,34.297985],[-86.546064,34.297895],[-86.546125,34.297772],[-86.546199,34.29761],[-86.545968,34.297565],[-86.544779,34.297315],[-86.543489,34.297043],[-86.543259,34.296991],[-86.543088,34.296948],[-86.542919,34.2969],[-86.542752,34.296849],[-86.54263,34.296809],[-86.542448,34.296746],[-86.542328,34.296702],[-86.542209,34.296656],[-86.542034,34.296584],[-86.541806,34.296485],[-86.540686,34.295973],[-86.540544,34.295902],[-86.540406,34.295828],[-86.54027,34.29575],[-86.540146,34.295672],[-86.540016,34.295582],[-86.539881,34.295479],[-86.539762,34.295381],[-86.539621,34.295256],[-86.539485,34.295126],[-86.538875,34.294502],[-86.538524,34.294784],[-86.538445,34.294838],[-86.538361,34.294886],[-86.538295,34.294918],[-86.538248,34.294938],[-86.538198,34.294956],[-86.538122,34.294981],[-86.538044,34.295001],[-86.537991,34.295012],[-86.537884,34.295027],[-86.537803,34.295034],[-86.537721,34.295035],[-86.534489,34.295007],[-86.534482,34.294843],[-86.537723,34.29487],[-86.537818,34.294868],[-86.537911,34.294857],[-86.537958,34.294849],[-86.538026,34.294834],[-86.538118,34.294806],[-86.538207,34.29477],[-86.53829,34.294728],[-86.538349,34.294691],[-86.538405,34.294651],[-86.538749,34.294373],[-86.537605,34.293191],[-86.537492,34.293069],[-86.537321,34.292876],[-86.537206,34.292742],[-86.537131,34.292652],[-86.536932,34.292399],[-86.536841,34.292279],[-86.535368,34.290216],[-86.53535,34.290193],[-86.535327,34.290174],[-86.535291,34.290153],[-86.53525,34.290139],[-86.535207,34.290133],[-86.53464,34.290122],[-86.534572,34.290127],[-86.534505,34.290139],[-86.534457,34.290154],[-86.53441,34.290172],[-86.534367,34.290195],[-86.534339,34.290212],[-86.534313,34.29023],[-86.534276,34.290261],[-86.534254,34.290283],[-86.534225,34.290318],[-86.534178,34.29039],[-86.534142,34.290449],[-86.534076,34.290571],[-86.534032,34.290665],[-86.533967,34.290827],[-86.533929,34.290914],[-86.533845,34.291086],[-86.533753,34.291254],[-86.533703,34.291337],[-86.533639,34.291437],[-86.533577,34.291522],[-86.533533,34.291578],[-86.533464,34.29166],[-86.533391,34.29174],[-86.533325,34.291804],[-86.533246,34.291876],[-86.533163,34.291945],[-86.533082,34.292008],[-86.53301,34.292059],[-86.532936,34.292108],[-86.530955,34.29337],[-86.530065,34.293959],[-86.529938,34.29404],[-86.529779,34.294135],[-86.529618,34.294227],[-86.529453,34.294315],[-86.529341,34.294372],[-86.529171,34.294453],[-86.528078,34.294936],[-86.527939,34.294994],[-86.527882,34.297098],[-86.527876,34.297173],[-86.527865,34.297284],[-86.527842,34.297432],[-86.527818,34.297534],[-86.527785,34.297634],[-86.527764,34.297683],[-86.52773,34.297756],[-86.527691,34.297826],[-86.527661,34.297872],[-86.527614,34.29794],[-86.52758,34.297983],[-86.527477,34.298099],[-86.527358,34.298221],[-86.527244,34.298326],[-86.526675,34.298809],[-86.526578,34.298895],[-86.526473,34.298994],[-86.52634,34.299131],[-86.526226,34.299259],[-86.526153,34.299353],[-86.526089,34.299452],[-86.526046,34.299528],[-86.52601,34.299603],[-86.525982,34.299672],[-86.525958,34.29974],[-86.525712,34.30061],[-86.525673,34.300738],[-86.525493,34.301296],[-86.525471,34.30138],[-86.525459,34.301437],[-86.525446,34.301523],[-86.525441,34.30158],[-86.525437,34.301666],[-86.525439,34.301726],[-86.525446,34.301785],[-86.525459,34.301843],[-86.525478,34.301901],[-86.525501,34.301957],[-86.525541,34.30203],[-86.525576,34.302082],[-86.525616,34.302131],[-86.525675,34.302196],[-86.525766,34.302292],[-86.525862,34.302385],[-86.526149,34.302644],[-86.526194,34.302692],[-86.526221,34.302726],[-86.52627,34.302797],[-86.526301,34.302852],[-86.526326,34.302909],[-86.526347,34.302968],[-86.526373,34.303063],[-86.526394,34.303159],[-86.52641,34.303255],[-86.526421,34.303352],[-86.526426,34.30343],[-86.526294,34.303428],[-86.526284,34.303316],[-86.526271,34.303219],[-86.526252,34.303122],[-86.526228,34.303026],[-86.526206,34.302958],[-86.526184,34.302905],[-86.526156,34.302854],[-86.526113,34.302789],[-86.526075,34.302744],[-86.526034,34.302701],[-86.525796,34.302489],[-86.525729,34.302426],[-86.525632,34.302329],[-86.525539,34.30223],[-86.52548,34.302161],[-86.525441,34.302107],[-86.525406,34.302051],[-86.525368,34.301974],[-86.525344,34.301914],[-86.525326,34.301853],[-86.525314,34.301791],[-86.525306,34.301728],[-86.525304,34.301665],[-86.52531,34.301552],[-86.52532,34.301467],[-86.525342,34.301355],[-86.525364,34.301272],[-86.525571,34.300626],[-86.525832,34.299706],[-86.525861,34.299624],[-86.525895,34.299544],[-86.525934,34.299466],[-86.525978,34.299389],[-86.526044,34.29929],[-86.526118,34.299195],[-86.526198,34.299105],[-86.526259,34.299038],[-86.526392,34.298904],[-86.526462,34.298839],[-86.526569,34.298742],[-86.527158,34.298241],[-86.527275,34.298132],[-86.527358,34.298048],[-86.527471,34.29792],[-86.527534,34.297836],[-86.527563,34.297792],[-86.527602,34.297725],[-86.527636,34.297656],[-86.527655,34.297609],[-86.527673,34.297561],[-86.527694,34.297488],[-86.527706,34.29744],[-86.527718,34.297376],[-86.527739,34.297219],[-86.527751,34.297061],[-86.527803,34.295124],[-86.527799,34.295103],[-86.52779,34.29509],[-86.527772,34.295076],[-86.527755,34.29507],[-86.527737,34.295067],[-86.52772,34.295069],[-86.527561,34.295113],[-86.526785,34.295306],[-86.526613,34.295346],[-86.52644,34.295382],[-86.526324,34.295403],[-86.526207,34.295422],[-86.526032,34.295447],[-86.525796,34.295474],[-86.52556,34.295492],[-86.523867,34.295564],[-86.523727,34.295575],[-86.523588,34.295594],[-86.52344,34.295621],[-86.523158,34.295683],[-86.521659,34.296005],[-86.521563,34.296023],[-86.521466,34.296037],[-86.521334,34.296051],[-86.521268,34.296054],[-86.521169,34.296056],[-86.52107,34.296055],[-86.520801,34.296042],[-86.520565,34.296036],[-86.52033,34.296035],[-86.520015,34.29604],[-86.519798,34.296048],[-86.519631,34.296059],[-86.519561,34.296068],[-86.519515,34.296077],[-86.519425,34.2961],[-86.519359,34.296123],[-86.519317,34.29614],[-86.519256,34.29617],[-86.519197,34.296203],[-86.519142,34.29624],[-86.518746,34.296528],[-86.518652,34.296587],[-86.518549,34.296643],[-86.518464,34.296682],[-86.518348,34.296728],[-86.518258,34.296758],[-86.518119,34.296796],[-86.518043,34.29682],[-86.517967,34.296845],[-86.517855,34.296887],[-86.517781,34.296917],[-86.517673,34.296966],[-86.517603,34.297001],[-86.517499,34.297056],[-86.517399,34.297115],[-86.515528,34.298275],[-86.515426,34.298333],[-86.515346,34.298373],[-86.515264,34.298408],[-86.515151,34.298449],[-86.515064,34.298475],[-86.514949,34.298502],[-86.514868,34.298516],[-86.514571,34.29856],[-86.514165,34.298624],[-86.514004,34.29865],[-86.513924,34.298668],[-86.513847,34.298689],[-86.513771,34.298715],[-86.513698,34.298745],[-86.513627,34.298779],[-86.513537,34.298831],[-86.513495,34.298859],[-86.513434,34.298904],[-86.513395,34.298936],[-86.513149,34.299156],[-86.512977,34.299303],[-86.512797,34.299451],[-86.512636,34.299579],[-86.512472,34.299704],[-86.51236,34.299785],[-86.511877,34.300127],[-86.511976,34.300184],[-86.51208,34.300236],[-86.512302,34.300335],[-86.512533,34.300431],[-86.512587,34.300458],[-86.512638,34.300489],[-86.512701,34.300534],[-86.512758,34.300585],[-86.512802,34.300635],[-86.512825,34.300669],[-86.512843,34.300706],[-86.512877,34.300795],[-86.512906,34.300885],[-86.51293,34.300977],[-86.513009,34.301332],[-86.513039,34.301457],[-86.513087,34.301623],[-86.513129,34.301746],[-86.517074,34.303262],[-86.520557,34.303332],[-86.51669,34.303267],[-86.513139,34.303207],[-86.506254,34.303085],[-86.504977,34.303063],[-86.50396477639879,34.30304478819986],[-86.504967,34.30306],[-86.50496,34.302956],[-86.504345,34.30297],[-86.504304,34.302543],[-86.504284,34.302235],[-86.504269,34.302055],[-86.504207,34.301412],[-86.50418,34.301136],[-86.503958,34.300334],[-86.503866,34.299723],[-86.504142,34.299038],[-86.503791,34.298878],[-86.503709,34.298845],[-86.503585,34.298798],[-86.503458,34.298755],[-86.50333,34.298717],[-86.503157,34.298673],[-86.503023,34.298643],[-86.502881,34.298617],[-86.502786,34.298602],[-86.502642,34.298583],[-86.502546,34.298573],[-86.502402,34.298562],[-86.502305,34.298557],[-86.50216,34.298554],[-86.502063,34.298555],[-86.501918,34.298559],[-86.501283,34.29859],[-86.501287,34.298645],[-86.500479,34.298684],[-86.500588,34.300998],[-86.500654,34.302406],[-86.500671,34.302416],[-86.500693,34.302434],[-86.500716,34.302462],[-86.500728,34.302486],[-86.500733,34.302503],[-86.500735,34.30252],[-86.500734,34.302546],[-86.500728,34.302571],[-86.500717,34.302595],[-86.500701,34.302617],[-86.50068,34.302636],[-86.500655,34.302652],[-86.500628,34.302664],[-86.500598,34.302671],[-86.500568,34.302675],[-86.500537,34.302674],[-86.500506,34.302668],[-86.500478,34.302658],[-86.500452,34.302644],[-86.500436,34.302632],[-86.500416,34.302613],[-86.500401,34.30259],[-86.50039,34.302566],[-86.500385,34.30254],[-86.500385,34.302523],[-86.500389,34.302498],[-86.500395,34.302481],[-86.500403,34.302465],[-86.500419,34.302443],[-86.500439,34.302424],[-86.500455,34.302413],[-86.50028,34.298693],[-86.497819,34.298812],[-86.499486,34.302966],[-86.498795,34.302953],[-86.49878229678698,34.30295277888849],[-86.497475,34.299693],[-86.497311,34.299709],[-86.497252,34.300467],[-86.497182,34.301312],[-86.497122,34.302009],[-86.49704056350576,34.3029224623631],[-86.497014,34.302922],[-86.496749,34.302917],[-86.49667570253591,34.30291573227657],[-86.496797,34.301543],[-86.49691,34.300172],[-86.496947,34.29969],[-86.497026,34.298504],[-86.496929,34.297919],[-86.495373,34.297907],[-86.495212,34.297901],[-86.495103,34.297895],[-86.49494,34.297883],[-86.494862,34.297874],[-86.49476,34.297854],[-86.49466,34.297827],[-86.494563,34.297793],[-86.494484,34.297757],[-86.494414,34.297715],[-86.49435,34.297667],[-86.494307,34.297627],[-86.494281,34.297598],[-86.494234,34.297538],[-86.494229,34.297708],[-86.494226,34.29793],[-86.49422,34.299458],[-86.494227,34.299708],[-86.494237,34.2999],[-86.494249,34.300045],[-86.494264,34.300163],[-86.494284,34.300284],[-86.494309,34.300404],[-86.494405,34.300799],[-86.494512,34.301276],[-86.494538,34.301379],[-86.49458,34.301532],[-86.494626,34.301685],[-86.494824,34.302297],[-86.494932,34.302605],[-86.495042,34.30289],[-86.494937,34.302889],[-86.494828,34.302604],[-86.491999,34.302546],[-86.491975,34.30255],[-86.491954,34.302558],[-86.491935,34.30257],[-86.491903,34.302595],[-86.491866,34.302614],[-86.491824,34.302625],[-86.491802,34.302628],[-86.491769,34.302629],[-86.491737,34.302625],[-86.491705,34.302617],[-86.491676,34.302605],[-86.491649,34.302589],[-86.491626,34.30257],[-86.491607,34.302549],[-86.491593,34.302525],[-86.491581,34.302491],[-86.491578,34.302455],[-86.491584,34.302418],[-86.491601,34.302384],[-86.491626,34.302353],[-86.491658,34.302327],[-86.491696,34.302308],[-86.491738,34.302297],[-86.491782,34.302293],[-86.491826,34.302297],[-86.491868,34.302309],[-86.491905,34.302329],[-86.491943,34.302359],[-86.491955,34.302367],[-86.491977,34.302375],[-86.492,34.302379],[-86.49477,34.302441],[-86.4947,34.302233],[-86.494525,34.301689],[-86.494494,34.301587],[-86.49445,34.301433],[-86.494412,34.301278],[-86.494307,34.300814],[-86.494211,34.300417],[-86.494177,34.300247],[-86.494153,34.300076],[-86.49414,34.299947],[-86.49413,34.299762],[-86.494124,34.29962],[-86.494121,34.299407],[-86.494127,34.297853],[-86.494132,34.297624],[-86.494142,34.297375],[-86.494143,34.297287],[-86.494138,34.297191],[-86.494133,34.297123],[-86.494114,34.296989],[-86.494086,34.296856],[-86.49405,34.296724],[-86.493886,34.296259],[-86.493851,34.296187],[-86.493829,34.296152],[-86.493799,34.296109],[-86.493784,34.296092],[-86.493759,34.296068],[-86.49373,34.296048],[-86.493709,34.296036],[-86.493671,34.296019],[-86.493643,34.296009],[-86.493614,34.296001],[-86.493569,34.295992],[-86.493509,34.295986],[-86.493383,34.295986],[-86.493165,34.295994],[-86.492949,34.296009],[-86.492733,34.296033],[-86.492626,34.296047],[-86.492417,34.296079],[-86.492263,34.296099],[-86.492057,34.296118],[-86.49185,34.29613],[-86.490792,34.296146],[-86.489993,34.296147],[-86.489894,34.296145],[-86.489795,34.296139],[-86.489697,34.296129],[-86.489632,34.29612],[-86.489503,34.296096],[-86.489329,34.296053],[-86.489141,34.296],[-86.488957,34.29594],[-86.488866,34.295907],[-86.488404,34.295732],[-86.487899,34.295549],[-86.487398,34.295355],[-86.487031,34.295218],[-86.485651,34.294722],[-86.485556,34.294691],[-86.485458,34.294663],[-86.485326,34.294634],[-86.485201,34.294613],[-86.484995,34.294591],[-86.484708,34.294562],[-86.484167,34.294514],[-86.48282,34.294407],[-86.48274,34.294787],[-86.482717,34.294927],[-86.482698,34.295068],[-86.482685,34.295202],[-86.482677,34.295333],[-86.482668,34.295607],[-86.48267,34.295733],[-86.482723,34.296519],[-86.482762,34.297123],[-86.482803,34.297813],[-86.482845,34.298582],[-86.48296,34.298577],[-86.482965,34.298673],[-86.482685,34.298708],[-86.482653,34.298082],[-86.482609,34.297332],[-86.482558,34.296527],[-86.482506,34.295779],[-86.482502,34.295664],[-86.482504,34.295573],[-86.482514,34.295283],[-86.482524,34.295149],[-86.482539,34.295011],[-86.482552,34.294913],[-86.482577,34.294767],[-86.482654,34.294395],[-86.481568,34.294315],[-86.481542,34.294315],[-86.481516,34.29432],[-86.481484,34.294332],[-86.481458,34.294351],[-86.481438,34.294375],[-86.481429,34.294396],[-86.481394,34.294526],[-86.48137,34.294607],[-86.481088,34.295491],[-86.480879,34.296108],[-86.480827,34.296247],[-86.480775,34.296367],[-86.480548,34.296842],[-86.480373,34.297227],[-86.480205,34.297571],[-86.480182,34.297612],[-86.480144,34.297671],[-86.480085,34.297748],[-86.480018,34.297819],[-86.479947,34.297883],[-86.479876,34.297934],[-86.479819,34.297969],[-86.479759,34.298001],[-86.479718,34.298019],[-86.479584,34.298074],[-86.479525,34.298101],[-86.479439,34.298144],[-86.47934,34.298199],[-86.479269,34.298241],[-86.479202,34.298287],[-86.479138,34.298336],[-86.479078,34.298388],[-86.47904,34.298424],[-86.478987,34.298481],[-86.478822,34.298685],[-86.478719,34.298807],[-86.478612,34.298928],[-86.478414,34.299145],[-86.47828,34.299296],[-86.477898,34.299747],[-86.47783,34.299819],[-86.477749,34.299898],[-86.477665,34.299973],[-86.477573,34.300048],[-86.477567,34.299938],[-86.47763,34.299884],[-86.477708,34.299811],[-86.477783,34.299735],[-86.477831,34.299683],[-86.478175,34.299276],[-86.478355,34.299073],[-86.478596,34.298808],[-86.478741,34.298637],[-86.478888,34.298453],[-86.478925,34.298412],[-86.478984,34.298352],[-86.479047,34.298295],[-86.479114,34.298242],[-86.479185,34.298192],[-86.479259,34.298145],[-86.479382,34.298077],[-86.479464,34.298035],[-86.479548,34.297997],[-86.479654,34.297954],[-86.479714,34.297927],[-86.479771,34.297896],[-86.479826,34.297862],[-86.479892,34.297811],[-86.479959,34.297749],[-86.480018,34.297683],[-86.48007,34.297612],[-86.480114,34.297538],[-86.48028,34.297197],[-86.480455,34.296812],[-86.480687,34.296328],[-86.480745,34.29619],[-86.480784,34.296086],[-86.481009,34.295417],[-86.481275,34.294585],[-86.481311,34.294458],[-86.481342,34.294331],[-86.480882,34.294327],[-86.480663,34.294321],[-86.480191,34.294289],[-86.479884,34.294272],[-86.479241,34.294242],[-86.479046,34.294238],[-86.478977,34.294235],[-86.478875,34.294227],[-86.478645,34.294201],[-86.478428,34.294185],[-86.478209,34.294176],[-86.478157,34.294177],[-86.478122,34.29418],[-86.478053,34.294192],[-86.478003,34.294206],[-86.477669,34.294334],[-86.47763,34.294347],[-86.477569,34.294362],[-86.477507,34.294374],[-86.477423,34.294381],[-86.477359,34.294381],[-86.477255,34.294376],[-86.477271,34.294763],[-86.476964,34.289369],[-86.467863,34.289198],[-86.469527,34.28922],[-86.469477,34.289202],[-86.469405,34.28917],[-86.468009,34.288509],[-86.46795,34.288477],[-86.467876,34.288428],[-86.467811,34.288377],[-86.467756,34.288325],[-86.467715,34.288278],[-86.467677,34.288228],[-86.467644,34.288176],[-86.467616,34.288123],[-86.46751,34.287861],[-86.467442,34.287708],[-86.46689,34.286553],[-86.466855,34.286494],[-86.466829,34.286455],[-86.46677,34.286382],[-86.466737,34.286346],[-86.466685,34.286296],[-86.466608,34.286234],[-86.466547,34.286192],[-86.466482,34.286153],[-86.466414,34.286118],[-86.466312,34.286072],[-86.46596,34.285919],[-86.465682,34.285803],[-86.465542,34.285748],[-86.465401,34.285697],[-86.465258,34.28565],[-86.465161,34.285621],[-86.465032,34.285585],[-86.464933,34.285562],[-86.464833,34.285543],[-86.464733,34.28553],[-86.464631,34.285521],[-86.464529,34.285516],[-86.464442,34.285516],[-86.464379,34.285518],[-86.463971,34.285542],[-86.463707,34.285553],[-86.463268,34.285563],[-86.462861,34.285568],[-86.462434,34.285569],[-86.459514,34.285545],[-86.459518,34.285632],[-86.459519,34.285689],[-86.459488,34.286692],[-86.459476,34.287279],[-86.459472,34.287739],[-86.459471,34.289041],[-86.459391,34.289039],[-86.459551,34.280597],[-86.442978,34.280681],[-86.44341,34.340394],[-86.44608,34.340441],[-86.44607999062288,34.34044199983494],[-86.44341,34.340395],[-86.443674,34.376849],[-86.490087,34.376609],[-86.566286,34.376177]],[[-86.49028,34.302834],[-86.490115,34.302832],[-86.490058,34.302108],[-86.489972,34.300399],[-86.489967,34.300351],[-86.489953,34.300287],[-86.489936,34.300241],[-86.489922,34.30021],[-86.48986,34.300098],[-86.489848,34.300084],[-86.489838,34.300076],[-86.489804,34.300062],[-86.489788,34.300053],[-86.48976,34.30003],[-86.489744,34.30001],[-86.489736,34.299995],[-86.489731,34.299979],[-86.489727,34.299956],[-86.489729,34.299925],[-86.489736,34.299903],[-86.489748,34.299882],[-86.489765,34.299863],[-86.489793,34.299842],[-86.489819,34.299829],[-86.489847,34.299821],[-86.489876,34.299818],[-86.489906,34.299819],[-86.489925,34.299822],[-86.489962,34.299835],[-86.489978,34.299844],[-86.49,34.29986],[-86.490018,34.299879],[-86.490027,34.299894],[-86.490037,34.299917],[-86.490042,34.299949],[-86.490039,34.299974],[-86.490027,34.300009],[-86.490028,34.300032],[-86.490035,34.300049],[-86.490097,34.300155],[-86.490113,34.30019],[-86.490138,34.300261],[-86.490153,34.300334],[-86.490158,34.30039],[-86.490228,34.30211],[-86.49028,34.302834]],[[-86.489339,34.302823],[-86.48714,34.302797],[-86.486399,34.302788],[-86.482088,34.30277],[-86.477727,34.302752],[-86.477721,34.302645],[-86.489339,34.302823]]],[[[-86.565625,34.300161],[-86.565582,34.295169],[-86.56524,34.295257],[-86.564836,34.295357],[-86.564162,34.295516],[-86.563776,34.295603],[-86.560522,34.296323],[-86.560279,34.29638],[-86.560099,34.296428],[-86.559861,34.296499],[-86.559626,34.296577],[-86.559393,34.296663],[-86.559163,34.296757],[-86.558938,34.296857],[-86.558718,34.296965],[-86.558556,34.29705],[-86.558274,34.297208],[-86.558321,34.299144],[-86.559122,34.29906],[-86.559307,34.299048],[-86.559492,34.299044],[-86.559631,34.299047],[-86.561645,34.299112],[-86.561942,34.299117],[-86.562588,34.299121],[-86.562701,34.299124],[-86.562813,34.29913],[-86.562962,34.299146],[-86.563463,34.299223],[-86.563549,34.29924],[-86.563677,34.299268],[-86.563803,34.2993],[-86.563886,34.299324],[-86.564009,34.299364],[-86.56409,34.299393],[-86.56421,34.299439],[-86.56429,34.299473],[-86.564408,34.299528],[-86.564485,34.299566],[-86.565625,34.300161]]],[[[-86.56558,34.294968],[-86.565535,34.289804],[-86.565503,34.289846],[-86.565366,34.290014],[-86.56522,34.290178],[-86.564973,34.290471],[-86.564951,34.2905],[-86.564933,34.290532],[-86.564923,34.290553],[-86.564907,34.290595],[-86.564888,34.290659],[-86.564871,34.290746],[-86.564863,34.290846],[-86.564862,34.29093],[-86.564868,34.291015],[-86.56526,34.295051],[-86.56558,34.294968]]],[[[-86.565534,34.289595],[-86.565451,34.28001],[-86.55484,34.280073],[-86.555199,34.280239],[-86.555314,34.280296],[-86.555392,34.280337],[-86.55551,34.280404],[-86.555624,34.280474],[-86.555685,34.280516],[-86.555742,34.280561],[-86.555812,34.280627],[-86.555858,34.280679],[-86.555901,34.280735],[-86.555949,34.280812],[-86.555989,34.280893],[-86.556012,34.280956],[-86.556033,34.281034],[-86.556045,34.28111],[-86.556078,34.281447],[-86.556101,34.281785],[-86.556116,34.282123],[-86.556121,34.282461],[-86.556091,34.290257],[-86.558284,34.290302],[-86.55876,34.290309],[-86.559283,34.290312],[-86.55968,34.29031],[-86.560158,34.290305],[-86.560535,34.290306],[-86.560895,34.290314],[-86.56133,34.29033],[-86.561588,34.290338],[-86.563663,34.290384],[-86.564075,34.290388],[-86.564518,34.290384],[-86.564565,34.290387],[-86.564612,34.290395],[-86.564672,34.290412],[-86.564714,34.290429],[-86.564845,34.290431],[-86.565113,34.290113],[-86.565222,34.289993],[-86.565325,34.28987],[-86.565424,34.289745],[-86.565534,34.289595]]],[[[-86.565131,34.295083],[-86.564733,34.290997],[-86.564729,34.290889],[-86.564732,34.290809],[-86.564741,34.290719],[-86.564761,34.290621],[-86.56476,34.290597],[-86.564751,34.290566],[-86.564739,34.290545],[-86.564715,34.29052],[-86.564684,34.290501],[-86.564652,34.290489],[-86.564605,34.290477],[-86.564556,34.29047],[-86.564507,34.290467],[-86.564075,34.29047],[-86.563661,34.290466],[-86.561564,34.29042],[-86.560909,34.290397],[-86.560637,34.29039],[-86.560371,34.290387],[-86.560171,34.290387],[-86.559673,34.290393],[-86.559253,34.290394],[-86.558708,34.290391],[-86.558281,34.290384],[-86.556148,34.290341],[-86.556124,34.290344],[-86.556107,34.290352],[-86.556095,34.290364],[-86.556087,34.290378],[-86.556084,34.290393],[-86.556088,34.290548],[-86.556102,34.29092],[-86.556118,34.291198],[-86.556146,34.291554],[-86.556173,34.29184],[-86.556231,34.292362],[-86.556268,34.29267],[-86.55631,34.292976],[-86.556377,34.293426],[-86.556407,34.293673],[-86.55686,34.297773],[-86.558371,34.296921],[-86.558527,34.296837],[-86.558633,34.296783],[-86.558794,34.296704],[-86.558903,34.296654],[-86.55907,34.296581],[-86.559184,34.296533],[-86.559299,34.296487],[-86.559474,34.296422],[-86.559711,34.296341],[-86.559885,34.296287],[-86.560061,34.296236],[-86.560236,34.29619],[-86.560405,34.296149],[-86.56386,34.295385],[-86.564433,34.295253],[-86.564719,34.295185],[-86.565131,34.295083]]],[[[-86.558222,34.299154],[-86.5582,34.298255],[-86.557846,34.29827],[-86.556902,34.298311],[-86.556977,34.299243],[-86.557773,34.299192],[-86.558042,34.299171],[-86.558222,34.299154]]],[[[-86.558198,34.298173],[-86.558176,34.297263],[-86.557684,34.297541],[-86.556877,34.297997],[-86.556892,34.298189],[-86.556898,34.298206],[-86.556908,34.298216],[-86.556927,34.298225],[-86.556944,34.298227],[-86.558198,34.298173]]],[[[-86.556878,34.299253],[-86.556782,34.29805],[-86.556352,34.298293],[-86.555302,34.298885],[-86.554793,34.299169],[-86.55486,34.299192],[-86.554906,34.299204],[-86.554976,34.29922],[-86.555048,34.299231],[-86.555225,34.299244],[-86.555484,34.299258],[-86.55568,34.299263],[-86.555902,34.299265],[-86.556878,34.299253]]],[[[-86.556766,34.297826],[-86.556316,34.293745],[-86.556309,34.293728],[-86.556302,34.293721],[-86.556289,34.293712],[-86.556268,34.293708],[-86.554061,34.293687],[-86.554057,34.293604],[-86.556209,34.293625],[-86.556237,34.293622],[-86.556256,34.293614],[-86.556271,34.293603],[-86.556287,34.293583],[-86.556292,34.293566],[-86.556293,34.293549],[-86.556264,34.293334],[-86.556197,34.292883],[-86.556156,34.292576],[-86.556085,34.291943],[-86.556055,34.291653],[-86.55603,34.291363],[-86.556013,34.291104],[-86.555998,34.290824],[-86.555984,34.290435],[-86.555977,34.290411],[-86.555965,34.290389],[-86.555941,34.290363],[-86.555919,34.290348],[-86.555884,34.290333],[-86.555746,34.290301],[-86.555656,34.290288],[-86.555611,34.290284],[-86.555542,34.290283],[-86.555228,34.290298],[-86.554978,34.290305],[-86.5547,34.290305],[-86.55438,34.290296],[-86.554213,34.290295],[-86.554046,34.290299],[-86.553265,34.290323],[-86.552978,34.290327],[-86.552691,34.290326],[-86.552404,34.290321],[-86.549752,34.29025],[-86.549712,34.290246],[-86.549063,34.290247],[-86.54832,34.290279],[-86.547443,34.29036],[-86.547182,34.290392],[-86.547081,34.290402],[-86.546878,34.290417],[-86.546675,34.290425],[-86.546324,34.290425],[-86.54601,34.290435],[-86.545776,34.290436],[-86.545601,34.290431],[-86.545484,34.290426],[-86.545368,34.290418],[-86.545193,34.290402],[-86.545077,34.290389],[-86.544481,34.290313],[-86.544035,34.290259],[-86.54275,34.290121],[-86.542577,34.290095],[-86.542448,34.290071],[-86.541995,34.289971],[-86.541908,34.289954],[-86.54179,34.289938],[-86.541701,34.28993],[-86.541641,34.289928],[-86.541572,34.289927],[-86.541481,34.289931],[-86.541391,34.289938],[-86.541301,34.28995],[-86.541184,34.289972],[-86.540982,34.290021],[-86.540838,34.290052],[-86.540692,34.290078],[-86.540534,34.290101],[-86.540403,34.290116],[-86.540276,34.290127],[-86.54013,34.290135],[-86.540032,34.290139],[-86.539217,34.290143],[-86.539031,34.290142],[-86.537527,34.290124],[-86.536373,34.290093],[-86.535505,34.290085],[-86.535486,34.290087],[-86.535469,34.290093],[-86.535451,34.290107],[-86.535441,34.290126],[-86.53544,34.290146],[-86.535448,34.290166],[-86.536926,34.292236],[-86.537015,34.292355],[-86.537175,34.292559],[-86.53728,34.292686],[-86.537372,34.292794],[-86.537572,34.29302],[-86.537683,34.293141],[-86.538808,34.294302],[-86.539529,34.29504],[-86.539675,34.295183],[-86.53979,34.295286],[-86.539908,34.295386],[-86.540021,34.295475],[-86.540148,34.295568],[-86.540248,34.295634],[-86.54039,34.295719],[-86.540519,34.295791],[-86.540695,34.295882],[-86.540829,34.295946],[-86.541968,34.296463],[-86.542141,34.296537],[-86.542258,34.296584],[-86.542418,34.296645],[-86.542597,34.296709],[-86.542724,34.296751],[-86.542899,34.296807],[-86.543061,34.296854],[-86.543225,34.296897],[-86.543396,34.296938],[-86.543513,34.296963],[-86.546108,34.297508],[-86.546283,34.29754],[-86.546518,34.297576],[-86.546754,34.297604],[-86.546982,34.297625],[-86.547152,34.297636],[-86.549905,34.297782],[-86.549973,34.297788],[-86.550075,34.2978],[-86.55021,34.297822],[-86.55033,34.297848],[-86.550475,34.297887],[-86.550617,34.297934],[-86.550721,34.297973],[-86.550818,34.298014],[-86.55091,34.298058],[-86.551401,34.298307],[-86.551493,34.298352],[-86.551603,34.298402],[-86.55175,34.298464],[-86.551892,34.298518],[-86.552036,34.298568],[-86.552173,34.298611],[-86.552335,34.298656],[-86.552802,34.298774],[-86.553073,34.298838],[-86.553436,34.298918],[-86.553757,34.298982],[-86.554073,34.29904],[-86.554289,34.299072],[-86.554506,34.299097],[-86.555344,34.298629],[-86.556766,34.297826]]],[[[-86.556022,34.282461],[-86.556019,34.282209],[-86.556014,34.282041],[-86.556002,34.281789],[-86.555986,34.281537],[-86.555964,34.281285],[-86.555941,34.281077],[-86.555922,34.280996],[-86.555894,34.280917],[-86.555866,34.28086],[-86.555822,34.280786],[-86.555769,34.280717],[-86.555724,34.280668],[-86.555674,34.280622],[-86.555602,34.280565],[-86.555528,34.280517],[-86.555418,34.280451],[-86.555344,34.280409],[-86.555229,34.280349],[-86.555112,34.280293],[-86.554639,34.280074],[-86.529864,34.280218],[-86.529875,34.280415],[-86.529896,34.28063],[-86.529913,34.280752],[-86.529943,34.280914],[-86.529982,34.281074],[-86.530066,34.281364],[-86.530155,34.28166],[-86.53025,34.281955],[-86.530483,34.282641],[-86.530583,34.282901],[-86.530658,34.283085],[-86.530765,34.283329],[-86.530891,34.283594],[-86.53103,34.283865],[-86.531141,34.284066],[-86.531269,34.284288],[-86.531408,34.284521],[-86.532084,34.285633],[-86.532237,34.285879],[-86.532394,34.286123],[-86.532551,34.286357],[-86.532724,34.286607],[-86.532921,34.286887],[-86.533012,34.287012],[-86.533107,34.287134],[-86.534155,34.288441],[-86.534364,34.288696],[-86.534905,34.289408],[-86.535348,34.290001],[-86.536455,34.290012],[-86.537391,34.290039],[-86.537598,34.290042],[-86.539094,34.29006],[-86.540029,34.290056],[-86.540172,34.290051],[-86.540314,34.290041],[-86.540456,34.290027],[-86.540598,34.290008],[-86.54069,34.289994],[-86.540827,34.289969],[-86.540962,34.28994],[-86.541187,34.289886],[-86.541249,34.289874],[-86.541343,34.28986],[-86.541406,34.289853],[-86.541501,34.289847],[-86.541564,34.289845],[-86.541658,34.289846],[-86.54178,34.289854],[-86.541871,34.289865],[-86.541931,34.289874],[-86.54202,34.289892],[-86.54247,34.289991],[-86.542593,34.290014],[-86.542717,34.290033],[-86.542849,34.290049],[-86.543913,34.290162],[-86.545281,34.290176],[-86.545268,34.290326],[-86.545382,34.290336],[-86.545553,34.290347],[-86.545724,34.290353],[-86.545895,34.290354],[-86.546066,34.290351],[-86.546306,34.290342],[-86.546624,34.290343],[-86.546824,34.290338],[-86.546923,34.290332],[-86.547073,34.29032],[-86.547172,34.29031],[-86.547438,34.290277],[-86.548316,34.2902],[-86.549058,34.290173],[-86.549567,34.290166],[-86.549529,34.290118],[-86.549491,34.290074],[-86.549423,34.290006],[-86.549386,34.289975],[-86.549328,34.289931],[-86.549245,34.289877],[-86.549201,34.289853],[-86.549132,34.289819],[-86.549061,34.28979],[-86.549013,34.289774],[-86.548502,34.289629],[-86.548533,34.289551],[-86.549047,34.289696],[-86.549147,34.289733],[-86.549242,34.289777],[-86.549311,34.289815],[-86.549376,34.289856],[-86.549438,34.289901],[-86.549477,34.289933],[-86.549532,34.289984],[-86.549566,34.29002],[-86.549598,34.290056],[-86.549643,34.290113],[-86.549668,34.290136],[-86.549683,34.290146],[-86.549708,34.290157],[-86.549735,34.290164],[-86.549758,34.290167],[-86.552407,34.290239],[-86.552729,34.290244],[-86.552993,34.290244],[-86.553269,34.29024],[-86.554042,34.290216],[-86.554212,34.290213],[-86.554382,34.290214],[-86.55476,34.290223],[-86.555012,34.290222],[-86.555192,34.290217],[-86.555497,34.290202],[-86.555574,34.290201],[-86.555648,34.290204],[-86.555745,34.290217],[-86.555817,34.290231],[-86.555992,34.290273],[-86.55602,34.283201],[-86.555868,34.283189],[-86.555607,34.283185],[-86.555481,34.283179],[-86.555104,34.283158],[-86.554806,34.283144],[-86.5544,34.283119],[-86.554217,34.28311],[-86.553916,34.283099],[-86.553618,34.283077],[-86.553471,34.28306],[-86.553103,34.283031],[-86.55294,34.283013],[-86.552883,34.283008],[-86.552672,34.282995],[-86.552337,34.282968],[-86.551906,34.282942],[-86.551827,34.282934],[-86.551731,34.282922],[-86.551657,34.282909],[-86.55163,34.282903],[-86.551571,34.282879],[-86.551517,34.282848],[-86.551318,34.282708],[-86.551279,34.282688],[-86.551225,34.282675],[-86.551127,34.282663],[-86.551047,34.282655],[-86.550961,34.28265],[-86.550883,34.282647],[-86.55081,34.282645],[-86.550658,34.282646],[-86.550505,34.282653],[-86.550435,34.282658],[-86.550366,34.282667],[-86.550075,34.282713],[-86.549996,34.282723],[-86.54994,34.282726],[-86.549878,34.282728],[-86.549656,34.282723],[-86.549569,34.282724],[-86.549229,34.282744],[-86.549014,34.282762],[-86.548971,34.282768],[-86.548929,34.282778],[-86.54889,34.282789],[-86.548857,34.282801],[-86.548758,34.282847],[-86.548716,34.282869],[-86.548655,34.282908],[-86.54854,34.282995],[-86.548471,34.282936],[-86.548591,34.282845],[-86.54866,34.282801],[-86.548707,34.282776],[-86.548814,34.282727],[-86.548853,34.282713],[-86.548899,34.282699],[-86.548973,34.282684],[-86.549221,34.282662],[-86.549564,34.282642],[-86.549658,34.28264],[-86.549818,34.282645],[-86.549934,34.282644],[-86.549986,34.282641],[-86.550058,34.282632],[-86.550349,34.282586],[-86.550423,34.282576],[-86.550497,34.28257],[-86.550655,34.282564],[-86.550811,34.282563],[-86.550886,34.282565],[-86.550967,34.282567],[-86.551056,34.282573],[-86.551139,34.282581],[-86.551218,34.28259],[-86.551299,34.282606],[-86.55132,34.282612],[-86.551347,34.282624],[-86.551377,34.282641],[-86.551556,34.282769],[-86.5516,34.282797],[-86.551621,34.282807],[-86.551646,34.282819],[-86.551682,34.282829],[-86.551748,34.282841],[-86.55184,34.282853],[-86.551916,34.28286],[-86.552345,34.282886],[-86.55268,34.282913],[-86.552892,34.282926],[-86.552951,34.282931],[-86.553115,34.282949],[-86.553484,34.282979],[-86.553629,34.282995],[-86.553923,34.283017],[-86.554222,34.283028],[-86.554407,34.283037],[-86.554812,34.283061],[-86.555111,34.283076],[-86.555487,34.283097],[-86.555611,34.283102],[-86.555873,34.283107],[-86.55602,34.283118],[-86.556022,34.282461]]],[[[-86.542144,34.298799],[-86.542138,34.298767],[-86.542131,34.298752],[-86.542116,34.298731],[-86.54209,34.298708],[-86.542057,34.29869],[-86.542029,34.298682],[-86.541978,34.298677],[-86.54193,34.298677],[-86.541881,34.298681],[-86.541834,34.29869],[-86.541718,34.298722],[-86.541651,34.298744],[-86.541554,34.298779],[-86.541427,34.298832],[-86.540074,34.29944],[-86.53987,34.29954],[-86.539442,34.299769],[-86.539189,34.299895],[-86.538932,34.300014],[-86.53879,34.300075],[-86.538537,34.300179],[-86.538385,34.30025],[-86.538239,34.300327],[-86.538132,34.300389],[-86.538063,34.300432],[-86.53798,34.300487],[-86.537356,34.300918],[-86.537412,34.301902],[-86.5396,34.301922],[-86.541237,34.301957],[-86.5412,34.301451],[-86.541197,34.301341],[-86.541201,34.301258],[-86.54121,34.301176],[-86.541226,34.301094],[-86.541247,34.301013],[-86.541263,34.30096],[-86.541293,34.300881],[-86.542141,34.298831],[-86.542144,34.298799]]],[[[-86.535209,34.290022],[-86.534761,34.289424],[-86.534253,34.288756],[-86.534003,34.288449],[-86.532996,34.287195],[-86.532899,34.28707],[-86.532807,34.286943],[-86.532613,34.286668],[-86.532387,34.286339],[-86.532184,34.286031],[-86.531993,34.285727],[-86.531791,34.285786],[-86.531489,34.285876],[-86.530172,34.28629],[-86.529984,34.286346],[-86.529889,34.286371],[-86.529756,34.286403],[-86.529561,34.286444],[-86.529364,34.286478],[-86.529166,34.286504],[-86.529066,34.286514],[-86.528916,34.286525],[-86.528766,34.286533],[-86.528666,34.286535],[-86.52705,34.286543],[-86.526824,34.28654],[-86.525867,34.286522],[-86.525491,34.28651],[-86.524961,34.286485],[-86.524904,34.286484],[-86.52479,34.286488],[-86.524705,34.286497],[-86.524622,34.28651],[-86.524512,34.286535],[-86.524431,34.286558],[-86.524353,34.286586],[-86.524135,34.28668],[-86.523951,34.286767],[-86.523861,34.286812],[-86.523632,34.286933],[-86.523489,34.287003],[-86.523348,34.287067],[-86.523157,34.287147],[-86.52301,34.287203],[-86.522743,34.287301],[-86.522637,34.287338],[-86.522469,34.287389],[-86.522205,34.287461],[-86.522034,34.287514],[-86.521872,34.287573],[-86.521698,34.287645],[-86.521609,34.287686],[-86.521478,34.28775],[-86.521392,34.287795],[-86.521266,34.287866],[-86.521143,34.28794],[-86.521063,34.287992],[-86.520985,34.288045],[-86.520875,34.288124],[-86.520806,34.288176],[-86.520712,34.288252],[-86.520636,34.288318],[-86.520588,34.288364],[-86.519383,34.289564],[-86.519279,34.289675],[-86.519042,34.289945],[-86.517898,34.291149],[-86.51781,34.291235],[-86.517718,34.291319],[-86.517621,34.2914],[-86.517499,34.291497],[-86.517249,34.291688],[-86.515262,34.293155],[-86.515098,34.293281],[-86.514917,34.293429],[-86.51483,34.293505],[-86.514615,34.293699],[-86.514526,34.293775],[-86.514387,34.29389],[-86.51408,34.294138],[-86.513696,34.294438],[-86.513041,34.294962],[-86.511789,34.295986],[-86.511656,34.296101],[-86.511569,34.296178],[-86.51115,34.296566],[-86.511046,34.296666],[-86.510945,34.296768],[-86.510849,34.296874],[-86.51052,34.297254],[-86.51018,34.297641],[-86.50932,34.298605],[-86.509324,34.298737],[-86.50933,34.298825],[-86.509343,34.298958],[-86.509355,34.299045],[-86.509395,34.299281],[-86.509485,34.299728],[-86.509579,34.299739],[-86.510276,34.299848],[-86.511069,34.299963],[-86.511382,34.300013],[-86.511743,34.300077],[-86.512274,34.299702],[-86.512492,34.29954],[-86.512705,34.299373],[-86.512913,34.299201],[-86.513097,34.299041],[-86.513297,34.298862],[-86.513337,34.298829],[-86.513377,34.298798],[-86.513441,34.298753],[-86.513509,34.298712],[-86.513555,34.298687],[-86.513652,34.298641],[-86.513728,34.29861],[-86.513809,34.298583],[-86.513892,34.298561],[-86.513976,34.298543],[-86.514221,34.298503],[-86.514574,34.298448],[-86.514849,34.298407],[-86.514907,34.298397],[-86.514994,34.298377],[-86.51508,34.298354],[-86.515191,34.298315],[-86.515271,34.298281],[-86.515349,34.298244],[-86.515448,34.298187],[-86.51732,34.297027],[-86.517455,34.296948],[-86.51756,34.296893],[-86.517632,34.296859],[-86.517741,34.296811],[-86.517816,34.296781],[-86.517929,34.296739],[-86.518006,34.296714],[-86.518214,34.296654],[-86.51827,34.296636],[-86.518353,34.296606],[-86.518459,34.296559],[-86.518561,34.296506],[-86.518657,34.296446],[-86.51907,34.296146],[-86.519138,34.296103],[-86.519201,34.296069],[-86.519265,34.296038],[-86.519356,34.296004],[-86.519426,34.295984],[-86.519473,34.295972],[-86.519546,34.295958],[-86.519644,34.295947],[-86.519821,34.295937],[-86.520051,34.295929],[-86.52028,34.295925],[-86.520587,34.295927],[-86.520816,34.295933],[-86.521079,34.295945],[-86.521181,34.295947],[-86.521316,34.295942],[-86.521447,34.295929],[-86.521537,34.295915],[-86.521625,34.295898],[-86.523114,34.295579],[-86.523405,34.295515],[-86.523517,34.295493],[-86.523624,34.295477],[-86.523729,34.295464],[-86.523863,34.295454],[-86.52555,34.295382],[-86.525724,34.29537],[-86.525839,34.295359],[-86.526011,34.295339],[-86.526183,34.295314],[-86.526353,34.295285],[-86.526467,34.295264],[-86.526579,34.29524],[-86.526747,34.2952],[-86.527562,34.294998],[-86.527717,34.294953],[-86.527869,34.2949],[-86.528016,34.294839],[-86.529103,34.294358],[-86.529264,34.294282],[-86.529423,34.294201],[-86.529527,34.294145],[-86.529681,34.294059],[-86.529831,34.293969],[-86.52993,34.293906],[-86.530859,34.293293],[-86.532855,34.292021],[-86.532928,34.291973],[-86.533008,34.291915],[-86.53309,34.291851],[-86.533169,34.291784],[-86.533244,34.291715],[-86.533292,34.291666],[-86.533361,34.291592],[-86.533404,34.291541],[-86.533466,34.291462],[-86.533505,34.291409],[-86.53356,34.291327],[-86.53363,34.291212],[-86.533674,34.291134],[-86.533737,34.291017],[-86.533813,34.290857],[-86.533906,34.290633],[-86.533933,34.290572],[-86.533978,34.290481],[-86.534028,34.290392],[-86.534082,34.290305],[-86.534111,34.290263],[-86.534132,34.290236],[-86.534168,34.290197],[-86.534194,34.290173],[-86.534252,34.290129],[-86.534315,34.290091],[-86.534349,34.290075],[-86.534401,34.290054],[-86.534473,34.290033],[-86.534528,34.290022],[-86.534566,34.290017],[-86.534604,34.290014],[-86.534661,34.290012],[-86.535209,34.290022]]],[[[-86.531948,34.285653],[-86.531243,34.284492],[-86.531104,34.284258],[-86.530983,34.284045],[-86.530838,34.283773],[-86.530701,34.283498],[-86.530588,34.283249],[-86.530482,34.282999],[-86.530353,34.282663],[-86.530141,34.28204],[-86.530079,34.281852],[-86.529991,34.281572],[-86.529854,34.281102],[-86.529835,34.281029],[-86.529809,34.280917],[-86.529788,34.280804],[-86.529775,34.280723],[-86.529758,34.280585],[-86.529747,34.280472],[-86.529738,34.280359],[-86.529731,34.280218],[-86.514676,34.280303],[-86.514674,34.281246],[-86.514676,34.281472],[-86.514686,34.281773],[-86.514707,34.282116],[-86.514727,34.282362],[-86.514749,34.28256],[-86.514759,34.282627],[-86.514775,34.282693],[-86.514797,34.282759],[-86.514824,34.282822],[-86.514856,34.282884],[-86.51489,34.28294],[-86.514941,34.283006],[-86.515029,34.283101],[-86.515143,34.283218],[-86.51526,34.283331],[-86.515382,34.283442],[-86.515473,34.28352],[-86.515578,34.2836],[-86.515644,34.283646],[-86.51569,34.283675],[-86.515853,34.283768],[-86.516135,34.283919],[-86.516426,34.284067],[-86.516501,34.284108],[-86.51661,34.284171],[-86.516717,34.284238],[-86.51682,34.284309],[-86.51692,34.284383],[-86.517018,34.284461],[-86.517058,34.284497],[-86.517094,34.284536],[-86.517196,34.284673],[-86.517323,34.284824],[-86.517341,34.284851],[-86.517364,34.284892],[-86.517377,34.28492],[-86.517391,34.284964],[-86.5174,34.285008],[-86.517403,34.285053],[-86.517399,34.285113],[-86.51739,34.285158],[-86.51737,34.285222],[-86.517344,34.285286],[-86.517314,34.285347],[-86.51728,34.285406],[-86.517242,34.28546],[-86.517186,34.28553],[-86.51694,34.285788],[-86.516887,34.285848],[-86.516813,34.285939],[-86.51672,34.286064],[-86.516611,34.28623],[-86.516327,34.286622],[-86.516221,34.286761],[-86.516165,34.286829],[-86.51608,34.286926],[-86.516024,34.286986],[-86.515937,34.287075],[-86.51571,34.287288],[-86.515574,34.287427],[-86.515317,34.287712],[-86.515091,34.28797],[-86.514862,34.288242],[-86.514638,34.288518],[-86.514276,34.28897],[-86.51383,34.289533],[-86.513747,34.289636],[-86.513574,34.289838],[-86.513484,34.289937],[-86.513346,34.290083],[-86.513204,34.290227],[-86.513058,34.290368],[-86.512973,34.290446],[-86.512917,34.290491],[-86.512857,34.290532],[-86.512795,34.290571],[-86.512457,34.290748],[-86.512373,34.290797],[-86.512313,34.290837],[-86.512254,34.290882],[-86.512199,34.290929],[-86.512154,34.290976],[-86.5121,34.291042],[-86.512055,34.291112],[-86.511859,34.291511],[-86.511814,34.291593],[-86.511782,34.291647],[-86.511729,34.291725],[-86.511492,34.292049],[-86.511446,34.292118],[-86.511416,34.292167],[-86.511375,34.292243],[-86.511327,34.292346],[-86.5113,34.292414],[-86.511277,34.29249],[-86.511264,34.292552],[-86.511256,34.292614],[-86.511243,34.292864],[-86.511235,34.292935],[-86.511226,34.292982],[-86.511209,34.29304],[-86.511187,34.293096],[-86.51116,34.293151],[-86.511128,34.293205],[-86.511077,34.293281],[-86.510948,34.293464],[-86.510846,34.293598],[-86.510425,34.294134],[-86.510338,34.294253],[-86.510229,34.294415],[-86.510177,34.294497],[-86.510103,34.294622],[-86.509722,34.295314],[-86.50967,34.295422],[-86.509628,34.295533],[-86.509602,34.295618],[-86.509588,34.295675],[-86.509572,34.295761],[-86.509564,34.295819],[-86.509436,34.297205],[-86.509381,34.297654],[-86.509357,34.297897],[-86.509338,34.29814],[-86.509321,34.298465],[-86.510082,34.297612],[-86.510477,34.297163],[-86.510767,34.296828],[-86.510858,34.296727],[-86.510953,34.296629],[-86.511051,34.296534],[-86.511539,34.296084],[-86.51167,34.295969],[-86.511763,34.295891],[-86.512972,34.294903],[-86.513677,34.294338],[-86.514098,34.294009],[-86.514334,34.293818],[-86.514543,34.293642],[-86.51482,34.293394],[-86.514941,34.293293],[-86.515025,34.293225],[-86.515196,34.293094],[-86.517189,34.291622],[-86.51744,34.29143],[-86.517615,34.291289],[-86.517736,34.291181],[-86.517849,34.291068],[-86.518963,34.289895],[-86.519199,34.289626],[-86.519306,34.289512],[-86.520512,34.288311],[-86.520589,34.28824],[-86.520669,34.288172],[-86.52078,34.288084],[-86.520857,34.288027],[-86.520935,34.287972],[-86.521055,34.287893],[-86.521177,34.287817],[-86.521261,34.287769],[-86.521432,34.287677],[-86.521564,34.287613],[-86.521699,34.287552],[-86.521869,34.287484],[-86.521996,34.287438],[-86.522127,34.287397],[-86.522263,34.287357],[-86.522434,34.287312],[-86.522589,34.287265],[-86.522702,34.287226],[-86.52297,34.287127],[-86.523125,34.287068],[-86.523277,34.287005],[-86.523427,34.286937],[-86.523574,34.286866],[-86.523792,34.286751],[-86.52391,34.286691],[-86.524044,34.286627],[-86.524256,34.286534],[-86.524348,34.286498],[-86.524422,34.286473],[-86.524505,34.28645],[-86.52459,34.286432],[-86.524676,34.286417],[-86.524763,34.286408],[-86.52485,34.286403],[-86.524937,34.286402],[-86.525418,34.286424],[-86.525773,34.286436],[-86.526826,34.286458],[-86.527125,34.286461],[-86.528666,34.286453],[-86.528872,34.286445],[-86.529025,34.286435],[-86.529127,34.286425],[-86.52933,34.286399],[-86.529532,34.286365],[-86.52972,34.286326],[-86.529813,34.286304],[-86.529953,34.286267],[-86.530137,34.286213],[-86.531451,34.2858],[-86.531749,34.285711],[-86.531948,34.285653]]],[[[-86.517304,34.285074],[-86.517301,34.28502],[-86.517297,34.284994],[-86.517286,34.284955],[-86.517263,34.284905],[-86.517232,34.284859],[-86.51717,34.284788],[-86.517109,34.284713],[-86.517022,34.284595],[-86.516993,34.284561],[-86.51696,34.28453],[-86.516852,34.284443],[-86.516755,34.284372],[-86.516655,34.284303],[-86.516552,34.284238],[-86.516481,34.284196],[-86.516373,34.284137],[-86.516082,34.283989],[-86.515797,34.283836],[-86.515631,34.283742],[-86.515583,34.283711],[-86.515512,34.283662],[-86.515404,34.283579],[-86.51531,34.283498],[-86.515186,34.283386],[-86.515066,34.283271],[-86.514951,34.283152],[-86.514863,34.283056],[-86.514812,34.282992],[-86.514767,34.282921],[-86.514734,34.282858],[-86.514706,34.282793],[-86.514683,34.282726],[-86.514665,34.282659],[-86.51465,34.282568],[-86.514628,34.282369],[-86.514612,34.282182],[-86.514587,34.281771],[-86.514576,34.281471],[-86.514574,34.281246],[-86.514576,34.280304],[-86.496323,34.280404],[-86.496591,34.284251],[-86.496661,34.284232],[-86.496733,34.284218],[-86.49748,34.284103],[-86.497619,34.284088],[-86.497759,34.284076],[-86.497899,34.28407],[-86.49804,34.284067],[-86.498227,34.284072],[-86.498792,34.284109],[-86.498915,34.284115],[-86.499101,34.284121],[-86.499286,34.284124],[-86.499994,34.284123],[-86.500302,34.284121],[-86.500462,34.284124],[-86.500621,34.284132],[-86.500833,34.284149],[-86.500907,34.284157],[-86.500972,34.284168],[-86.501036,34.284183],[-86.501097,34.284203],[-86.501157,34.284227],[-86.501238,34.284266],[-86.501237,34.28433],[-86.501125,34.284276],[-86.501089,34.28426],[-86.501033,34.284241],[-86.500976,34.284225],[-86.500917,34.284214],[-86.500877,34.284209],[-86.500773,34.284198],[-86.500616,34.284187],[-86.500459,34.284179],[-86.500302,34.284176],[-86.499994,34.284178],[-86.499286,34.284179],[-86.499099,34.284176],[-86.498912,34.28417],[-86.498787,34.284164],[-86.498222,34.284127],[-86.498129,34.284124],[-86.497989,34.284123],[-86.49785,34.284126],[-86.49771,34.284135],[-86.497618,34.284143],[-86.49748,34.284159],[-86.496747,34.284272],[-86.496681,34.284285],[-86.496595,34.284309],[-86.496691,34.285646],[-86.49683,34.287684],[-86.501117,34.287772],[-86.501116,34.287799],[-86.501395,34.287805],[-86.499917,34.287775],[-86.496831,34.287711],[-86.496913,34.28889],[-86.498077,34.288912],[-86.498251,34.288914],[-86.498595,34.288912],[-86.498756,34.288913],[-86.499556,34.288933],[-86.499568,34.288645],[-86.499617,34.288646],[-86.499605,34.288962],[-86.500144,34.288976],[-86.501213,34.289003],[-86.50121069148499,34.28905799212576],[-86.498821,34.288997],[-86.498623,34.288995],[-86.498357,34.288996],[-86.498121,34.288995],[-86.496919,34.288972],[-86.497078,34.291163],[-86.497097,34.291445],[-86.497121,34.291867],[-86.497375,34.295457],[-86.497385,34.295675],[-86.497395,34.295824],[-86.497443,34.296413],[-86.497485,34.297144],[-86.497748,34.29865],[-86.501911,34.29845],[-86.502054,34.298445],[-86.502197,34.298445],[-86.50234,34.298449],[-86.502483,34.298457],[-86.502625,34.29847],[-86.502767,34.298487],[-86.502908,34.298509],[-86.503047,34.298535],[-86.503186,34.298565],[-86.503371,34.298613],[-86.503505,34.298653],[-86.503637,34.298697],[-86.503766,34.298746],[-86.503935,34.298817],[-86.504273,34.298972],[-86.504609,34.29913],[-86.50478,34.299205],[-86.505012,34.299298],[-86.505568,34.299506],[-86.505703,34.299549],[-86.505841,34.299585],[-86.505982,34.299612],[-86.506089,34.299627],[-86.506161,34.299635],[-86.5063,34.299643],[-86.506725,34.299651],[-86.506725,34.299667],[-86.507415,34.299678],[-86.507733,34.299677],[-86.508092,34.299673],[-86.508314,34.299674],[-86.50861,34.299683],[-86.50913,34.299707],[-86.509244,34.299709],[-86.509381,34.299709],[-86.50931,34.299364],[-86.509285,34.299232],[-86.509257,34.29906],[-86.509241,34.298939],[-86.509229,34.298815],[-86.509222,34.298683],[-86.50922,34.298551],[-86.509222,34.298463],[-86.509229,34.298306],[-86.509241,34.2981],[-86.509267,34.29779],[-86.509293,34.297557],[-86.509337,34.297199],[-86.509465,34.295813],[-86.509483,34.295698],[-86.509502,34.295612],[-86.509527,34.295527],[-86.509546,34.295471],[-86.509579,34.295388],[-86.509617,34.295307],[-86.510014,34.294587],[-86.510115,34.294416],[-86.510225,34.29425],[-86.510343,34.294087],[-86.510779,34.293532],[-86.510873,34.293407],[-86.51099,34.293241],[-86.511041,34.293165],[-86.51107,34.293117],[-86.511094,34.293066],[-86.511108,34.293032],[-86.511125,34.292979],[-86.511136,34.292927],[-86.511143,34.292866],[-86.511157,34.292605],[-86.511167,34.292535],[-86.511176,34.292489],[-86.511195,34.29242],[-86.511221,34.292347],[-86.511256,34.292266],[-86.511296,34.292187],[-86.51134,34.292109],[-86.511388,34.292034],[-86.511644,34.291683],[-86.51171,34.291582],[-86.511768,34.291479],[-86.511964,34.29108],[-86.511998,34.291024],[-86.512051,34.290953],[-86.512112,34.290886],[-86.512163,34.29084],[-86.512228,34.290789],[-86.512296,34.290742],[-86.512391,34.290685],[-86.512741,34.290501],[-86.512824,34.290449],[-86.512881,34.290406],[-86.512917,34.290375],[-86.512984,34.290313],[-86.513176,34.290126],[-86.513316,34.289983],[-86.513451,34.289836],[-86.513581,34.289688],[-86.513707,34.289538],[-86.51424,34.288865],[-86.514666,34.288335],[-86.514844,34.288118],[-86.515029,34.2879],[-86.515223,34.287678],[-86.5155,34.287371],[-86.515637,34.287233],[-86.515803,34.287078],[-86.515899,34.286984],[-86.515992,34.286887],[-86.516108,34.286753],[-86.51619,34.28665],[-86.516242,34.28658],[-86.516525,34.286188],[-86.516651,34.285999],[-86.516741,34.285879],[-86.516814,34.285792],[-86.516864,34.285735],[-86.517094,34.285495],[-86.517154,34.285422],[-86.517193,34.285365],[-86.517238,34.285286],[-86.517273,34.285203],[-86.517293,34.28514],[-86.517299,34.285113],[-86.517304,34.285074]]],[[[-86.516825,34.303257],[-86.513084,34.301819],[-86.513056,34.301785],[-86.513041,34.301756],[-86.513011,34.301719],[-86.512999,34.301699],[-86.512985,34.301667],[-86.512832,34.300992],[-86.51281,34.300904],[-86.512782,34.300818],[-86.512749,34.300733],[-86.512726,34.300691],[-86.512704,34.300662],[-86.512665,34.300622],[-86.512622,34.300586],[-86.512575,34.300552],[-86.512524,34.300523],[-86.512471,34.300498],[-86.512255,34.300408],[-86.512002,34.300295],[-86.511891,34.300237],[-86.511786,34.300172],[-86.511692,34.300237],[-86.511411,34.300428],[-86.510823,34.30082],[-86.510323,34.30116],[-86.510215,34.301229],[-86.510141,34.301273],[-86.510028,34.301337],[-86.509385,34.301684],[-86.509169,34.301799],[-86.508877,34.301947],[-86.508218,34.302269],[-86.508158,34.302295],[-86.508049,34.302336],[-86.507947,34.302377],[-86.507475,34.302594],[-86.507342,34.302649],[-86.506222,34.303079],[-86.51315,34.303184],[-86.516825,34.303257]]],[[[-86.511699,34.300125],[-86.51136,34.300066],[-86.511102,34.300024],[-86.51023,34.299897],[-86.509619,34.299801],[-86.509623,34.299826],[-86.509655,34.299978],[-86.509684,34.300091],[-86.509707,34.300166],[-86.509759,34.300314],[-86.509805,34.300423],[-86.509838,34.300495],[-86.509873,34.300567],[-86.509931,34.300672],[-86.510015,34.300809],[-86.510083,34.30091],[-86.510132,34.300976],[-86.510239,34.30111],[-86.51076,34.300756],[-86.51136,34.300356],[-86.511699,34.300125]]],[[[-86.510131,34.301178],[-86.510024,34.301045],[-86.509951,34.300945],[-86.509905,34.300877],[-86.509861,34.300808],[-86.509799,34.300703],[-86.50976,34.300632],[-86.509707,34.300524],[-86.509673,34.300451],[-86.509628,34.30034],[-86.509587,34.300226],[-86.509562,34.300149],[-86.509521,34.299993],[-86.509496,34.299876],[-86.509482,34.299797],[-86.509376,34.299791],[-86.509244,34.299792],[-86.509126,34.299789],[-86.508606,34.299765],[-86.508314,34.299757],[-86.508094,34.299755],[-86.50772,34.29976],[-86.507513,34.29976],[-86.507305,34.299759],[-86.506725,34.29975],[-86.506725,34.299761],[-86.506332,34.299754],[-86.506237,34.29975],[-86.506163,34.299745],[-86.506015,34.299729],[-86.505869,34.299704],[-86.50576,34.29968],[-86.505654,34.299651],[-86.505515,34.299606],[-86.504964,34.299401],[-86.504807,34.299339],[-86.504575,34.299239],[-86.50426,34.299092],[-86.504003,34.29973],[-86.504131,34.300328],[-86.504379,34.301137],[-86.504467,34.302044],[-86.504482,34.302231],[-86.5045,34.302506],[-86.504528,34.302801],[-86.505148,34.302788],[-86.505166,34.303063],[-86.505994,34.303076],[-86.507367,34.302547],[-86.507466,34.302505],[-86.507901,34.302304],[-86.508007,34.302261],[-86.508123,34.302218],[-86.508166,34.302199],[-86.508837,34.301871],[-86.509086,34.301745],[-86.509331,34.301615],[-86.509974,34.301268],[-86.510131,34.301178]]],[[[-86.496955,34.29515],[-86.496724,34.291884],[-86.496702,34.291485],[-86.496678,34.291131],[-86.496571,34.289659],[-86.495624,34.289658],[-86.49476,34.289652],[-86.493858,34.289638],[-86.493132,34.289621],[-86.493069,34.289616],[-86.493002,34.289606],[-86.492958,34.289597],[-86.492893,34.28958],[-86.49285,34.289567],[-86.492795,34.289545],[-86.492655,34.289481],[-86.492668,34.289586],[-86.492681,34.28966],[-86.492714,34.289806],[-86.492756,34.289951],[-86.492815,34.290117],[-86.492866,34.290239],[-86.493017,34.290568],[-86.493627,34.291934],[-86.494444,34.291908],[-86.494453,34.292045],[-86.49369,34.292069],[-86.494016,34.292761],[-86.494046,34.292835],[-86.494088,34.292947],[-86.494124,34.293061],[-86.494146,34.293137],[-86.494173,34.293252],[-86.494194,34.293368],[-86.494211,34.293485],[-86.494221,34.293602],[-86.494226,34.293719],[-86.494224,34.29386],[-86.494216,34.293946],[-86.494203,34.294017],[-86.494184,34.294088],[-86.494151,34.294181],[-86.49412,34.294249],[-86.494071,34.294337],[-86.494028,34.294401],[-86.493981,34.294462],[-86.49391,34.294539],[-86.493853,34.294594],[-86.493791,34.294645],[-86.493725,34.294693],[-86.493656,34.294738],[-86.493584,34.294779],[-86.493509,34.294816],[-86.493404,34.294859],[-86.493323,34.294887],[-86.493201,34.29492],[-86.493169,34.294931],[-86.493149,34.294941],[-86.493122,34.294958],[-86.493106,34.294972],[-86.493085,34.294995],[-86.493068,34.29502],[-86.493057,34.295048],[-86.493044,34.295098],[-86.493036,34.295148],[-86.493034,34.295199],[-86.493035,34.295233],[-86.493039,34.295267],[-86.493055,34.295357],[-86.493059,34.295433],[-86.493054,34.295509],[-86.493043,34.295565],[-86.493033,34.295602],[-86.493014,34.295656],[-86.492998,34.295692],[-86.49298,34.295727],[-86.492949,34.295777],[-86.492913,34.295826],[-86.492873,34.295872],[-86.492828,34.295915],[-86.492796,34.295942],[-86.492949,34.295927],[-86.493153,34.295912],[-86.493306,34.295906],[-86.493494,34.295903],[-86.493556,34.295906],[-86.493626,34.295918],[-86.493688,34.295935],[-86.493733,34.295952],[-86.49376,34.295965],[-86.493811,34.295996],[-86.493855,34.296033],[-86.493891,34.296075],[-86.493933,34.296139],[-86.493968,34.296205],[-86.493996,34.296273],[-86.494135,34.29667],[-86.494175,34.296807],[-86.4942,34.29691],[-86.494219,34.297015],[-86.494235,34.297155],[-86.494244,34.297299],[-86.494255,34.297355],[-86.494269,34.297397],[-86.494288,34.297441],[-86.494312,34.297485],[-86.494332,34.297513],[-86.494364,34.297553],[-86.494401,34.297591],[-86.494442,34.297626],[-86.494487,34.297658],[-86.494518,34.297677],[-86.494568,34.297702],[-86.494631,34.297728],[-86.494702,34.297753],[-86.494775,34.297772],[-86.49485,34.297788],[-86.4949,34.297795],[-86.494951,34.297801],[-86.495101,34.297813],[-86.495262,34.297821],[-86.495427,34.297826],[-86.496921,34.297836],[-86.496898,34.297576],[-86.496866,34.297187],[-86.496847,34.296926],[-86.496824,34.296543],[-86.496804,34.296163],[-86.496794,34.295897],[-86.496782,34.295525],[-86.496775,34.295145],[-86.496955,34.29515]]],[[[-86.496565,34.289576],[-86.496485,34.288453],[-86.496294,34.285665],[-86.496056,34.282302],[-86.495812,34.28231],[-86.495567,34.282312],[-86.494317,34.282297],[-86.494304,34.282335],[-86.494275,34.282409],[-86.494256,34.282466],[-86.493997,34.283393],[-86.493961,34.283518],[-86.493381,34.285446],[-86.493348,34.285549],[-86.493297,34.285686],[-86.493282,34.285739],[-86.493094,34.286642],[-86.493048,34.286904],[-86.493008,34.287104],[-86.492963,34.287303],[-86.492848,34.287784],[-86.492805,34.287982],[-86.492657,34.288974],[-86.492647,34.289079],[-86.492643,34.28915],[-86.492642,34.28922],[-86.492643,34.289325],[-86.492703,34.289409],[-86.492815,34.289461],[-86.492891,34.289491],[-86.49297,34.289515],[-86.493052,34.28953],[-86.493114,34.289537],[-86.493356,34.289544],[-86.493952,34.289557],[-86.494735,34.289569],[-86.495625,34.289576],[-86.496565,34.289576]]],[[[-86.496051,34.28222],[-86.495925,34.280406],[-86.495724,34.280407],[-86.494569,34.280413],[-86.494567,34.28061],[-86.494559,34.28081],[-86.494546,34.280991],[-86.494524,34.2812],[-86.494497,34.281389],[-86.494451,34.281665],[-86.494394,34.281963],[-86.49434,34.282215],[-86.495549,34.282229],[-86.495835,34.282227],[-86.496051,34.28222]]],[[[-86.49447,34.280414],[-86.48605,34.280459],[-86.486074,34.280486],[-86.486108,34.280516],[-86.486145,34.280543],[-86.486186,34.280566],[-86.487007,34.280951],[-86.487136,34.281016],[-86.487288,34.281099],[-86.487368,34.28114],[-86.487479,34.281189],[-86.487594,34.28123],[-86.487683,34.281256],[-86.487761,34.281275],[-86.489819,34.281728],[-86.490128,34.281799],[-86.490367,34.281859],[-86.490623,34.281927],[-86.490708,34.28195],[-86.491187,34.282094],[-86.491286,34.282119],[-86.491386,34.282141],[-86.491521,34.282163],[-86.491623,34.282174],[-86.491761,34.282183],[-86.493156,34.282192],[-86.493524,34.28219],[-86.493667,34.28219],[-86.493882,34.282195],[-86.494025,34.2822],[-86.49424,34.282212],[-86.494297,34.281947],[-86.494344,34.281704],[-86.494386,34.28146],[-86.494422,34.281212],[-86.494447,34.280982],[-86.49446,34.280804],[-86.494468,34.280625],[-86.49447,34.280414]]],[[[-86.494215,34.282293],[-86.493938,34.282279],[-86.49366,34.282273],[-86.493155,34.282274],[-86.491793,34.282266],[-86.491652,34.282259],[-86.491511,34.282245],[-86.491372,34.282223],[-86.491303,34.282209],[-86.491209,34.282186],[-86.491121,34.282162],[-86.490675,34.282028],[-86.490596,34.282006],[-86.490359,34.281943],[-86.490118,34.281882],[-86.489793,34.281807],[-86.488584,34.281541],[-86.487829,34.282047],[-86.487779,34.282078],[-86.487701,34.282119],[-86.487618,34.282153],[-86.487553,34.282174],[-86.487464,34.282195],[-86.48736,34.28221],[-86.487318,34.282214],[-86.487256,34.282216],[-86.485533,34.282188],[-86.485438,34.282188],[-86.485295,34.282194],[-86.48514,34.282209],[-86.484986,34.282231],[-86.484949,34.282239],[-86.484925,34.282247],[-86.484888,34.282261],[-86.484865,34.282273],[-86.484842,34.282287],[-86.484811,34.282309],[-86.484133,34.282918],[-86.484061,34.282976],[-86.484023,34.283003],[-86.483963,34.28304],[-86.483879,34.283084],[-86.483834,34.283103],[-86.483766,34.283129],[-86.483672,34.283157],[-86.4836,34.283173],[-86.483552,34.283181],[-86.482713,34.283303],[-86.482637,34.283312],[-86.48256,34.283316],[-86.482458,34.283316],[-86.482356,34.283307],[-86.482305,34.2833],[-86.48218,34.283276],[-86.482105,34.283264],[-86.481991,34.283249],[-86.481914,34.283242],[-86.481799,34.283235],[-86.481722,34.283232],[-86.481607,34.283232],[-86.48153,34.283235],[-86.481507,34.284306],[-86.48149,34.284758],[-86.481467,34.285253],[-86.481449,34.285708],[-86.481427,34.286457],[-86.48142,34.286797],[-86.481415,34.287255],[-86.481413,34.287729],[-86.481414,34.288102],[-86.481421,34.28866],[-86.481438,34.289385],[-86.48144,34.289582],[-86.481444,34.289714],[-86.481457,34.290025],[-86.481494,34.290587],[-86.481503,34.290747],[-86.481519,34.29121],[-86.481583,34.29249],[-86.481585,34.292663],[-86.48158,34.292816],[-86.481555,34.293245],[-86.481543,34.293389],[-86.481466,34.294115],[-86.481467,34.294137],[-86.481473,34.294159],[-86.481484,34.29418],[-86.481494,34.294192],[-86.48152,34.294213],[-86.481552,34.294227],[-86.481587,34.294234],[-86.482969,34.294335],[-86.484115,34.294427],[-86.484695,34.294478],[-86.484985,34.294507],[-86.48522,34.294532],[-86.485323,34.294549],[-86.485392,34.294562],[-86.485493,34.294586],[-86.48556,34.294604],[-86.485658,34.294635],[-86.485968,34.294746],[-86.485894,34.293697],[-86.485995,34.293699],[-86.486054,34.293851],[-86.4861,34.294793],[-86.487138,34.295167],[-86.487434,34.295278],[-86.48794,34.295474],[-86.488353,34.295623],[-86.488906,34.295832],[-86.48904,34.295879],[-86.48913,34.295909],[-86.489266,34.29595],[-86.489358,34.295975],[-86.489498,34.296009],[-86.489628,34.296035],[-86.489693,34.296045],[-86.489792,34.296056],[-86.489859,34.296061],[-86.489959,34.296065],[-86.490698,34.296064],[-86.491846,34.296047],[-86.492048,34.296036],[-86.492199,34.296023],[-86.4924,34.295998],[-86.492592,34.295968],[-86.492647,34.295938],[-86.492698,34.295905],[-86.492746,34.295867],[-86.492789,34.295826],[-86.492828,34.295783],[-86.492863,34.295737],[-86.492892,34.295688],[-86.492917,34.295638],[-86.492936,34.295586],[-86.492946,34.29555],[-86.492955,34.295496],[-86.492959,34.29546],[-86.492959,34.295406],[-86.492956,34.29537],[-86.492941,34.29528],[-86.492935,34.295225],[-86.492935,34.295171],[-86.49294,34.295116],[-86.492951,34.295062],[-86.492965,34.295015],[-86.492986,34.294973],[-86.493007,34.294943],[-86.493033,34.294916],[-86.493053,34.294899],[-86.493085,34.294877],[-86.493121,34.294859],[-86.493159,34.294845],[-86.493293,34.294808],[-86.493398,34.294771],[-86.493473,34.294738],[-86.493522,34.294714],[-86.493616,34.29466],[-86.493703,34.2946],[-86.493765,34.294551],[-86.493803,34.294516],[-86.493875,34.294443],[-86.493938,34.294364],[-86.49398,34.294303],[-86.494028,34.294217],[-86.494058,34.294151],[-86.494083,34.294083],[-86.494102,34.294014],[-86.494118,34.293927],[-86.494125,34.293854],[-86.494127,34.293757],[-86.494124,34.293641],[-86.494115,34.293525],[-86.494095,34.293371],[-86.494073,34.293256],[-86.494035,34.293104],[-86.493987,34.292954],[-86.493957,34.292875],[-86.493944,34.292858],[-86.493929,34.292849],[-86.493917,34.292845],[-86.493899,34.292842],[-86.49294,34.292811],[-86.492675,34.292804],[-86.492411,34.2928],[-86.491564,34.292802],[-86.49028,34.292828],[-86.490275,34.292746],[-86.491563,34.29272],[-86.49235,34.292718],[-86.492647,34.292721],[-86.492845,34.292725],[-86.493815,34.292756],[-86.493833,34.292753],[-86.49385,34.292746],[-86.493863,34.292736],[-86.493873,34.292722],[-86.493877,34.292702],[-86.493873,34.292682],[-86.493587,34.292077],[-86.493501,34.29189],[-86.492924,34.290597],[-86.492756,34.290229],[-86.492723,34.290148],[-86.492678,34.290025],[-86.492638,34.289903],[-86.49261,34.289797],[-86.492594,34.289726],[-86.492574,34.289619],[-86.492563,34.289548],[-86.492552,34.289451],[-86.492545,34.289349],[-86.492543,34.289273],[-86.492545,34.289121],[-86.492554,34.289007],[-86.492568,34.288894],[-86.492697,34.288034],[-86.492714,34.287935],[-86.492684,34.287945],[-86.492649,34.287954],[-86.492549,34.287972],[-86.492447,34.287982],[-86.492355,34.287984],[-86.492286,34.28798],[-86.492196,34.287968],[-86.492151,34.287958],[-86.492018,34.287925],[-86.491898,34.287902],[-86.491806,34.28789],[-86.491714,34.287883],[-86.491652,34.287881],[-86.491559,34.287881],[-86.49054,34.287912],[-86.490491,34.287912],[-86.490417,34.287907],[-86.490368,34.287902],[-86.490295,34.28789],[-86.490224,34.287874],[-86.490131,34.287847],[-86.489084,34.287382],[-86.488555,34.287125],[-86.488023,34.286996],[-86.488025,34.286951],[-86.488551,34.287071],[-86.489081,34.287329],[-86.490133,34.287788],[-86.490224,34.287817],[-86.490318,34.287838],[-86.490367,34.287846],[-86.49044,34.287854],[-86.490538,34.287857],[-86.491556,34.287826],[-86.491618,34.287825],[-86.491698,34.287827],[-86.491792,34.287834],[-86.491916,34.287849],[-86.492038,34.287872],[-86.492169,34.287905],[-86.49221,34.287914],[-86.492294,34.287925],[-86.492378,34.287929],[-86.492441,34.287927],[-86.49249,34.287923],[-86.492561,34.287914],[-86.492609,34.287905],[-86.492673,34.28789],[-86.492697,34.287879],[-86.492719,34.287865],[-86.492731,34.287853],[-86.492893,34.287168],[-86.492949,34.286896],[-86.492996,34.286628],[-86.493189,34.285703],[-86.493208,34.285644],[-86.493252,34.285526],[-86.493285,34.285426],[-86.493884,34.283434],[-86.494166,34.282426],[-86.49418,34.282385],[-86.494215,34.282293]]],[[[-86.488465,34.281515],[-86.487682,34.281342],[-86.487622,34.281326],[-86.487535,34.281299],[-86.487477,34.281279],[-86.487393,34.281245],[-86.487284,34.281195],[-86.487083,34.281086],[-86.486957,34.281022],[-86.486121,34.280629],[-86.486063,34.280593],[-86.486011,34.280551],[-86.485966,34.280504],[-86.485934,34.280459],[-86.481584,34.280483],[-86.481532,34.283153],[-86.481677,34.283149],[-86.481827,34.283153],[-86.481941,34.283161],[-86.482055,34.283173],[-86.48213,34.283184],[-86.482327,34.283219],[-86.482376,34.283226],[-86.482474,34.283234],[-86.482573,34.283233],[-86.482647,34.283228],[-86.482696,34.283222],[-86.483534,34.283099],[-86.483626,34.283082],[-86.483693,34.283064],[-86.483736,34.28305],[-86.483821,34.283016],[-86.483881,34.282986],[-86.48392,34.282965],[-86.483993,34.282916],[-86.48406,34.282862],[-86.48474,34.282252],[-86.484776,34.282225],[-86.484816,34.282201],[-86.484858,34.282181],[-86.484888,34.28217],[-86.484934,34.282157],[-86.484966,34.28215],[-86.485112,34.282128],[-86.485259,34.282114],[-86.485407,34.282106],[-86.485535,34.282106],[-86.487237,34.282133],[-86.487325,34.28213],[-86.48739,34.282123],[-86.487433,34.282116],[-86.487518,34.282097],[-86.487599,34.282069],[-86.487658,34.282044],[-86.487732,34.282005],[-86.488465,34.281515]]],[[[-86.481485,34.280483],[-86.459562,34.280597],[-86.45955,34.281466],[-86.459538,34.283175],[-86.45953,34.283688],[-86.459514,34.284404],[-86.459506,34.284852],[-86.459503,34.285349],[-86.459507,34.285463],[-86.462435,34.285486],[-86.462834,34.285486],[-86.463234,34.285482],[-86.463706,34.285471],[-86.463966,34.28546],[-86.464369,34.285436],[-86.464458,34.285433],[-86.464573,34.285435],[-86.464673,34.285441],[-86.464805,34.285455],[-86.464903,34.285471],[-86.465,34.285491],[-86.465095,34.285515],[-86.465244,34.285558],[-86.465391,34.285605],[-86.465536,34.285656],[-86.465726,34.285729],[-86.465984,34.285837],[-86.466344,34.285993],[-86.466463,34.286046],[-86.466511,34.28607],[-86.466557,34.286096],[-86.466625,34.286138],[-86.466709,34.286199],[-86.466786,34.286267],[-86.466856,34.28634],[-86.466903,34.286398],[-86.466945,34.286458],[-86.46697,34.2865],[-86.467003,34.286564],[-86.467548,34.287707],[-86.467617,34.287865],[-86.467694,34.288061],[-86.467719,34.288114],[-86.467749,34.288165],[-86.467796,34.28823],[-86.467837,34.288276],[-86.467897,34.288332],[-86.46793,34.288359],[-86.467983,34.288395],[-86.468059,34.288438],[-86.469455,34.289098],[-86.469502,34.28912],[-86.469574,34.289148],[-86.469649,34.289172],[-86.469726,34.289192],[-86.469778,34.289202],[-86.469857,34.289214],[-86.469937,34.289222],[-86.470017,34.289225],[-86.470524,34.289217],[-86.47086,34.289215],[-86.471084,34.289217],[-86.472134,34.289232],[-86.472388,34.28924],[-86.472574,34.289244],[-86.47526,34.289265],[-86.475509,34.28927],[-86.475782,34.289279],[-86.477044,34.289298],[-86.477043,34.28932],[-86.477252,34.294293],[-86.477363,34.294299],[-86.477401,34.294299],[-86.477479,34.294294],[-86.477536,34.294284],[-86.477592,34.29427],[-86.477629,34.294259],[-86.477929,34.294143],[-86.477983,34.294124],[-86.47802,34.294115],[-86.478077,34.294103],[-86.478134,34.294096],[-86.478192,34.294094],[-86.478365,34.294099],[-86.478518,34.294108],[-86.47867,34.294121],[-86.478888,34.294145],[-86.478988,34.294153],[-86.479055,34.294156],[-86.479245,34.29416],[-86.47989,34.29419],[-86.480199,34.294207],[-86.480668,34.294238],[-86.480884,34.294245],[-86.481353,34.294248],[-86.481452,34.293288],[-86.481462,34.293145],[-86.481481,34.292812],[-86.481485,34.292663],[-86.481483,34.292492],[-86.48142,34.29121],[-86.481402,34.290709],[-86.481358,34.290029],[-86.481344,34.289715],[-86.48134,34.289516],[-86.481339,34.289383],[-86.481321,34.288646],[-86.481317,34.288284],[-86.481314,34.287752],[-86.481318,34.287014],[-86.481328,34.286453],[-86.48135,34.285706],[-86.481368,34.285259],[-86.481397,34.284614],[-86.481413,34.284153],[-86.481485,34.280483]]]]}}]}